NORAD_CAT_ID,OBJECT_NAME,OBJECT_TYPE,EPOCH,MEAN_MOTION,ECCENTRICITY,INCLINATION,RA_OF_ASC_NODE,ARG_OF_PERICENTER,MEAN_ANOMALY,BSTAR,MEAN_MOTION_DOT,MEAN_MOTION_DDOT,TLE_LINE0,TLE_LINE1,TLE_LINE2,SEMIMAJOR_AXIS,PERIOD,APOGEE,PERIGEE,DECAYED
49143.0,STARLINK-3109,PAYLOAD,2023-07-08 07:30:44,14.9832967,0.0003962,69.9992,213.7261,268.1292,91.9413,2.0517e-06,-6.9e-07,0.0,0 STARLINK-3109,1 49143U 21082P   23189.31300946 -.00000069  00000-0  20517-5 0  9999,2 49143  69.9992 213.7261 0003962 268.1292  91.9413 14.98329670100365,6950.194,96.107,574.813,569.305,0.0
49143.0,STARLINK-3109,PAYLOAD,2023-07-08 18:43:40,14.98349307,0.000403,69.9992,212.548,269.4643,90.6055,-0.00035496,-4.328e-05,0.0,0 STARLINK-3109,1 49143U 21082P   23189.78032410 -.00004328  00000-0 -35496-3 0  9991,2 49143  69.9992 212.5480 0004030 269.4643  90.6055 14.98349307100431,6950.133,96.106,574.799,569.197,0.0
49143.0,STARLINK-3109,PAYLOAD,2023-07-09 02:44:20,14.98329758,0.0003923,69.9992,211.7062,267.8843,92.1867,1.3139e-05,6.4e-07,0.0,0 STARLINK-3109,1 49143U 21082P   23190.11412918  .00000064  00000-0  13139-4 0  9997,2 49143  69.9992 211.7062 0003923 267.8843  92.1867 14.98329758100483,6950.194,96.107,574.785,569.332,0.0
49143.0,STARLINK-3109,PAYLOAD,2023-07-10 02:46:21,14.98328701,0.0003996,69.999,209.1813,267.9376,92.1325,5.8683e-05,6.07e-06,0.0,0 STARLINK-3109,1 49143U 21082P   23191.11552902  .00000607  00000-0  58683-4 0  9992,2 49143  69.9990 209.1813 0003996 267.9376  92.1325 14.98328701100631,6950.197,96.107,574.839,569.285,0.0
49143.0,STARLINK-3109,PAYLOAD,2023-07-11 02:48:22,14.98331257,0.0004034,69.999,206.6563,267.8812,92.1886,6.5615e-05,6.9e-06,0.0,0 STARLINK-3109,1 49143U 21082P   23192.11692714  .00000690  00000-0  65615-4 0  9994,2 49143  69.9990 206.6563 0004034 267.8812  92.1886 14.98331257100781,6950.189,96.107,574.858,569.25,0.0
49143.0,STARLINK-3109,PAYLOAD,2023-07-12 07:38:47,14.98334183,0.0004035,69.9991,203.6267,267.5636,92.5061,4.7976e-05,4.79e-06,0.0,0 STARLINK-3109,1 49143U 21082P   23193.31860419  .00000479  00000-0  47976-4 0  9991,2 49143  69.9991 203.6267 0004035 267.5636  92.5061 14.98334183100962,6950.18,96.107,574.849,569.241,0.0
49143.0,STARLINK-3109,PAYLOAD,2023-07-13 17:17:36,14.98330836,0.0003967,69.9993,200.092,267.5845,92.486,-3.3505e-06,-1.33e-06,0.0,0 STARLINK-3109,1 49143U 21082P   23194.72056610 -.00000133  00000-0 -33505-5 0  9990,2 49143  69.9993 200.0920 0003967 267.5845  92.4860 14.98330836101177,6950.19,96.107,574.812,569.298,0.0
49143.0,STARLINK-3109,PAYLOAD,2023-07-14 17:19:37,14.98330978,0.0003969,69.9993,197.5673,266.9072,93.1633,3.0902e-05,2.76e-06,0.0,0 STARLINK-3109,1 49143U 21082P   23195.72196470  .00000276  00000-0  30902-4 0  9993,2 49143  69.9993 197.5673 0003969 266.9072  93.1633 14.98330978101329,6950.19,96.107,574.813,569.296,0.0
49143.0,STARLINK-3109,PAYLOAD,2023-07-15 17:21:38,14.98330115,0.0003998,69.9992,195.0423,267.7994,92.2707,3.0952e-05,2.76e-06,0.0,0 STARLINK-3109,1 49143U 21082P   23196.72336401  .00000276  00000-0  30952-4 0  9999,2 49143  69.9992 195.0423 0003998 267.7994  92.2707 14.98330115101479,6950.193,96.107,574.836,569.279,0.0
49143.0,STARLINK-3109,PAYLOAD,2023-07-16 18:59:47,14.98330315,0.0003999,69.9991,192.3492,267.3216,92.7485,2.6889e-06,-6.1e-07,0.0,0 STARLINK-3109,1 49143U 21082P   23197.79152568 -.00000061  00000-0  26889-5 0  9995,2 49143  69.9991 192.3492 0003999 267.3216  92.7485 14.98330315101636,6950.192,96.107,574.836,569.278,0.0
49143.0,STARLINK-3109,PAYLOAD,2023-07-17 23:50:12,14.98335694,0.0004017,69.9991,189.3197,267.409,92.6609,0.00013832,1.558e-05,0.0,0 STARLINK-3109,1 49143U 21082P   23198.99319764  .00001558  00000-0  13832-3 0  9994,2 49143  69.9991 189.3197 0004017 267.4090  92.6609 14.98335694101819,6950.175,96.107,574.832,569.248,0.0
49143.0,STARLINK-3109,PAYLOAD,2023-07-18 09:27:00,14.98327224,0.0003751,69.9992,188.3098,263.0679,97.0054,7.6591e-06,-2e-08,0.0,0 STARLINK-3109,1 49143U 21082P   23199.39375968 -.00000002  00000-0  76591-5 0  9994,2 49143  69.9992 188.3098 0003751 263.0679  97.0054 14.98327224101877,6950.201,96.107,574.673,569.459,0.0
49143.0,STARLINK-3109,PAYLOAD,2023-07-19 09:29:01,14.98332577,0.0003648,69.9992,185.785,270.3947,89.6794,2.2738e-05,1.78e-06,0.0,0 STARLINK-3109,1 49143U 21082P   23200.39515601  .00000178  00000-0  22738-4 0  9993,2 49143  69.9992 185.7850 0003648 270.3947  89.6794 14.98332577102021,6950.185,96.107,574.585,569.514,0.0
49143.0,STARLINK-3109,PAYLOAD,2023-07-20 22:20:07,14.98325805,0.0003197,70.0,181.9153,269.5275,90.5518,5.0501e-05,5.1e-06,0.0,0 STARLINK-3109,1 49143U 21082P   23201.93063943  .00000510  00000-0  50501-4 0  9990,2 49143  70.0000 181.9153 0003197 269.5275  90.5518 14.98325805102257,6950.206,96.107,574.293,569.849,0.0
49143.0,STARLINK-3109,PAYLOAD,2023-07-24 08:02:58,14.98329562,0.000313,70.0,173.3307,264.0723,96.008,2.2094e-05,1.71e-06,0.0,0 STARLINK-3109,1 49143U 21082P   23205.33540348  .00000171  00000-0  22094-4 0  9996,2 49143  70.0000 173.3307 0003130 264.0723  96.0080 14.98329562103887,6950.194,96.107,574.235,569.884,0.0
49143.0,STARLINK-3109,PAYLOAD,2023-07-25 08:04:59,14.98333657,0.0003149,69.9998,170.8051,266.0721,94.0078,6.9314e-05,7.34e-06,0.0,0 STARLINK-3109,1 49143U 21082P   23206.33679995  .00000734  00000-0  69314-4 0  9999,2 49143  69.9998 170.8051 0003149 266.0721  94.0078 14.98333657104031,6950.182,96.107,574.235,569.858,0.0
49143.0,STARLINK-3109,PAYLOAD,2023-07-26 03:18:36,14.98330544,0.0003049,70.0,168.7861,261.634,98.4474,5.8992e-05,6.11e-06,0.0,0 STARLINK-3109,1 49143U 21082P   23207.13792252  .00000611  00000-0  58992-4 0  9994,2 49143  70.0000 168.7861 0003049 261.6340  98.4474 14.98330544104153,6950.191,96.107,574.175,569.937,0.0
49143.0,STARLINK-3109,PAYLOAD,2023-07-26 06:30:52,14.98333076,0.0003031,70.0001,168.4496,260.9696,99.112,8.3276e-05,9.01e-06,0.0,0 STARLINK-3109,1 49143U 21082P   23207.27144017  .00000901  00000-0  83276-4 0  9994,2 49143  70.0001 168.4496 0003031 260.9696  99.1120 14.98333076104173,6950.183,96.107,574.155,569.942,0.0
49143.0,STARLINK-3109,PAYLOAD,2023-07-27 03:20:37,14.9833565,0.0003062,70.0001,166.2611,264.2472,95.8338,5.0197e-05,5.06e-06,0.0,0 STARLINK-3109,1 49143U 21082P   23208.13931814  .00000506  00000-0  50197-4 0  9996,2 49143  70.0001 166.2611 0003062 264.2472  95.8338 14.98335650103185,6950.175,96.107,574.169,569.912,0.0
49143.0,STARLINK-3109,PAYLOAD,2023-07-27 14:33:33,14.98332917,0.0003403,69.9989,165.0824,272.4011,87.6758,8.5142e-05,9.23e-06,0.0,0 STARLINK-3109,1 49143U 21082P   23208.60663733  .00000923  00000-0  85142-4 0  9991,2 49143  69.9989 165.0824 0003403 272.4011  87.6758 14.98332917104379,6950.184,96.107,574.414,569.684,0.0
49143.0,STARLINK-3109,PAYLOAD,2023-07-27 20:58:06,14.9832269,0.0003099,69.9997,164.4107,268.1965,91.8839,-8.7486e-05,-1.137e-05,0.0,0 STARLINK-3109,1 49143U 21082P   23208.87368945 -.00001137  00000-0 -87486-4 0  9990,2 49143  69.9997 164.4107 0003099 268.1965  91.8839 14.98322690104415,6950.215,96.107,574.234,569.927,0.0
49143.0,STARLINK-3109,PAYLOAD,2023-07-28 00:10:22,14.98321675,0.0003141,69.9998,164.0733,268.8945,91.1854,-7.9725e-05,-1.044e-05,0.0,0 STARLINK-3109,1 49143U 21082P   23209.00721016 -.00001044  00000-0 -79725-4 0  9992,2 49143  69.9998 164.0733 0003141 268.8945  91.1854 14.98321675103310,6950.219,96.108,574.267,569.901,0.0
49143.0,STARLINK-3109,PAYLOAD,2023-07-28 06:34:54,14.98325553,0.0003141,70.0,163.3996,268.7486,91.3313,-5.186e-05,-7.12e-06,0.0,0 STARLINK-3109,1 49143U 21082P   23209.27424742 -.00000712  00000-0 -51860-4 0  9998,2 49143  70.0000 163.3996 0003141 268.7486  91.3313 14.98325553104478,6950.207,96.107,574.255,569.889,0.0
49143.0,STARLINK-3109,PAYLOAD,2023-07-28 16:11:43,14.98329278,0.0003218,70.0,162.3897,265.1614,94.9178,9.1648e-06,1.6e-07,0.0,0 STARLINK-3109,1 49143U 21082P   23209.67480363  .00000016  00000-0  91648-5 0  9997,2 49143  70.0000 162.3897 0003218 265.1614  94.9178 14.98329278103415,6950.195,96.107,574.297,569.824,0.0
49143.0,STARLINK-3109,PAYLOAD,2023-07-29 06:36:54,14.98340482,0.0003146,70.0,160.8747,270.105,89.9748,6.5952e-05,6.94e-06,0.0,0 STARLINK-3109,1 49143U 21082P   23210.27563539  .00000694  00000-0  65952-4 0  9992,2 49143  70.0000 160.8747 0003146 270.1050  89.9748 14.98340482103509,6950.16,96.106,574.212,569.839,0.0
49143.0,STARLINK-3109,PAYLOAD,2023-07-29 14:37:35,14.98327209,0.0003139,70.0001,160.0331,270.5476,89.5323,0.00017879,2.041e-05,0.0,0 STARLINK-3109,1 49143U 21082P   23210.60943958  .00002041  00000-0  17879-3 0  9998,2 49143  70.0001 160.0331 0003139 270.5476  89.5323 14.98327209103551,6950.202,96.107,574.248,569.885,0.0
49143.0,STARLINK-3109,PAYLOAD,2023-07-30 19:28:00,14.98331561,0.0003044,70.0003,157.0043,267.4924,92.5886,8.0982e-06,4e-08,0.0,0 STARLINK-3109,1 49143U 21082P   23211.81112145  .00000004  00000-0  80982-5 0  9992,2 49143  70.0003 157.0043 0003044 267.4924  92.5886 14.98331561103731,6950.188,96.107,574.169,569.937,0.0
49143.0,STARLINK-3109,PAYLOAD,2023-08-01 01:54:34,14.9833126,0.000267,70.0008,153.806,267.8209,92.2644,-3.2724e-05,-4.83e-06,0.0,0 STARLINK-3109,1 49143U 21082P   23213.07956158 -.00000483  00000-0 -32724-4 0  9995,2 49143  70.0008 153.8060 0002670 267.8209  92.2644 14.98331260103929,6950.189,96.107,573.91,570.198,0.0
49143.0,STARLINK-3109,PAYLOAD,2023-08-02 06:44:59,14.9832964,0.0002656,70.0009,150.7769,262.3215,97.7643,3.4524e-05,3.19e-06,0.0,0 STARLINK-3109,1 49143U 21082P   23214.28124133  .00000319  00000-0  34524-4 0  9995,2 49143  70.0009 150.7769 0002656 262.3215  97.7643 14.98329640104102,6950.194,96.107,573.905,570.213,0.0
49143.0,STARLINK-3109,PAYLOAD,2023-08-02 13:09:31,14.983453,0.0002701,70.0008,150.1031,270.0662,90.0188,-0.00021041,-2.604e-05,0.0,0 STARLINK-3109,1 49143U 21082P   23214.54827618 -.00002604  00000-0 -21041-3 0  9992,2 49143  70.0008 150.1031 0002701 270.0662  90.0188 14.98345300104145,6950.146,96.106,573.888,570.133,0.0
